{"type": "FeatureCollection", "features": [ {"type": "Feature", "properties": {"norad_id": 38054, "name": "COSMOS 2251 DEB", "group": "cosmos-2251-debris", "lat": 51.44706787771719, "lon": -86.06386547057058, "alt_km": 1285.66425102857, "timestamp": "2025-12-20T16:47:36.682688+00:00", "meta": {"OBJECT_NAME": "COSMOS 2251 DEB", "OBJECT_ID": "1993-036BRL", "EPOCH": "2025-12-19T04:17:14.300736", "MEAN_MOTION": 13.62371953, "ECCENTRICITY": 0.03577355, "INCLINATION": 73.9533, "RA_OF_ASC_NODE": 255.2542, "ARG_OF_PERICENTER": 232.0768, "MEAN_ANOMALY": 285.3471, "EPHEMERIS_TYPE": 0, "CLASSIFICATION_TYPE": "U", "NORAD_CAT_ID": 38054, "ELEMENT_SET_NO": 999, "REV_AT_EPOCH": 67267, "BSTAR": 0.0015341979, "MEAN_MOTION_DOT": 1.803e-05, "MEAN_MOTION_DDOT": 0}, "tle": {"line1": "1 38054U 93036BRL 25353.17863774  .00001803  00000+0  15342-2 0  9990", "line2": "2 38054  73.9533 255.2542 0357735 232.0768 285.3471 13.62371953672673"}}, "geometry": {"type": "Point", "coordinates": [-86.06386547057058, 51.44706787771719]}}, {"type": "Feature", "properties": {"norad_id": 38055, "name": "COSMOS 2251 DEB", "group": "cosmos-2251-debris", "lat": 28.882438362753152, "lon": -159.77198039035494, "alt_km": 623.4060832606247, "timestamp": "2025-12-20T16:47:36.682697+00:00", "meta": {"OBJECT_NAME": "COSMOS 2251 DEB", "OBJECT_ID": "1993-036BRM", "EPOCH": "2025-12-20T07:43:08.868288", "MEAN_MOTION": 14.77047435, "ECCENTRICITY": 0.0066037, "INCLINATION": 74.0077, "RA_OF_ASC_NODE": 191.8677, "ARG_OF_PERICENTER": 317.7505, "MEAN_ANOMALY": 222.1264, "EPHEMERIS_TYPE": 0, "CLASSIFICATION_TYPE": "U", "NORAD_CAT_ID": 38055, "ELEMENT_SET_NO": 999, "REV_AT_EPOCH": 60794, "BSTAR": 0.00044182, "MEAN_MOTION_DOT": 3.197e-05, "MEAN_MOTION_DDOT": 0}, "tle": {"line1": "1 38055U 93036BRM 25354.32163042  .00003197  00000+0  44182-3 0  9993", "line2": "2 38055  74.0077 191.8677 0066037 317.7505 222.1264 14.77047435607944"}}, "geometry": {"type": "Point", "coordinates": [-159.77198039035494, 28.882438362753152]}}, {"type": "Feature", "properties": {"norad_id": 38060, "name": "COSMOS 2251 DEB", "group": "cosmos-2251-debris", "lat": -54.57915401318831, "lon": 123.7508518440758, "alt_km": 721.4153235367903, "timestamp": "2025-12-20T16:47:36.682707+00:00", "meta": {"OBJECT_NAME": "COSMOS 2251 DEB", "OBJECT_ID": "1993-036BRS", "EPOCH": "2025-12-18T12:51:56.479104", "MEAN_MOTION": 14.63889679, "ECCENTRICITY": 0.00583817, "INCLINATION": 74.0432, "RA_OF_ASC_NODE": 284.1799, "ARG_OF_PERICENTER": 28.687, "MEAN_ANOMALY": 331.7487, "EPHEMERIS_TYPE": 0, "CLASSIFICATION_TYPE": "U", "NORAD_CAT_ID": 38060, "ELEMENT_SET_NO": 999, "REV_AT_EPOCH": 72049, "BSTAR": 0.00043764509, "MEAN_MOTION_DOT": 2.314e-05, "MEAN_MOTION_DDOT": 0}, "tle": {"line1": "1 38060U 93036BRS 25352.53607036  .00002314  00000+0  43765-3 0  9992", "line2": "2 38060  74.0432 284.1799 0058381  28.6870 331.7487 14.63889679720491"}}, "geometry": {"type": "Point", "coordinates": [123.7508518440758, -54.57915401318831]}}, {"type": "Feature", "properties": {"norad_id": 38062, "name": "COSMOS 2251 DEB", "group": "cosmos-2251-debris", "lat": 18.160005797826535, "lon": -80.21489474197566, "alt_km": 573.4829824056524, "timestamp": "2025-12-20T16:47:36.682717+00:00", "meta": {"OBJECT_NAME": "COSMOS 2251 DEB", "OBJECT_ID": "1993-036BRU", "EPOCH": "2025-12-20T12:40:12.327744", "MEAN_MOTION": 14.95206266, "ECCENTRICITY": 0.0012943, "INCLINATION": 74.0088, "RA_OF_ASC_NODE": 274.7346, "ARG_OF_PERICENTER": 42.7602, "MEAN_ANOMALY": 131.9089, "EPHEMERIS_TYPE": 0, "CLASSIFICATION_TYPE": "U", "NORAD_CAT_ID": 38062, "ELEMENT_SET_NO": 999, "REV_AT_EPOCH": 63146, "BSTAR": 0.0014745, "MEAN_MOTION_DOT": 0.00016237, "MEAN_MOTION_DDOT": 0}, "tle": {"line1": "1 38062U 93036BRU 25354.52792046  .00016237  00000+0  14745-2 0  9995", "line2": "2 38062  74.0088 274.7346 0012943  42.7602 131.9089 14.95206266631463"}}, "geometry": {"type": "Point", "coordinates": [-80.21489474197566, 18.160005797826535]}}, {"type": "Feature", "properties": {"norad_id": 38064, "name": "COSMOS 2251 DEB", "group": "cosmos-2251-debris", "lat": -74.00136010485815, "lon": 16.818342430591315, "alt_km": 687.0790112069508, "timestamp": "2025-12-20T16:47:36.682727+00:00", "meta": {"OBJECT_NAME": "COSMOS 2251 DEB", "OBJECT_ID": "1993-036BRW", "EPOCH": "2025-12-19T18:07:41.080512", "MEAN_MOTION": 14.56354752, "ECCENTRICITY": 0.0047209, "INCLINATION": 74.0226, "RA_OF_ASC_NODE": 110.8167, "ARG_OF_PERICENTER": 229.1842, "MEAN_ANOMALY": 130.5224, "EPHEMERIS_TYPE": 0, "CLASSIFICATION_TYPE": "U", "NORAD_CAT_ID": 38064, "ELEMENT_SET_NO": 999, "REV_AT_EPOCH": 71967, "BSTAR": 0.00064457855, "MEAN_MOTION_DOT": 2.872e-05, "MEAN_MOTION_DDOT": 0}, "tle": {"line1": "1 38064U 93036BRW 25353.75533658  .00002872  00000+0  64458-3 0  9990", "line2": "2 38064  74.0226 110.8167 0047209 229.1842 130.5224 14.56354752719677"}}, "geometry": {"type": "Point", "coordinates": [16.818342430591315, -74.00136010485815]}}, {"type": "Feature", "properties": {"norad_id": 38067, "name": "COSMOS 2251 DEB", "group": "cosmos-2251-debris", "lat": 25.475877914842407, "lon": -92.88352714565347, "alt_km": 641.4360414218436, "timestamp": "2025-12-20T16:47:36.682737+00:00", "meta": {"OBJECT_NAME": "COSMOS 2251 DEB", "OBJECT_ID": "1993-036BRZ", "EPOCH": "2025-12-20T00:18:38.290752", "MEAN_MOTION": 14.61151533, "ECCENTRICITY": 0.00696951, "INCLINATION": 74.0171, "RA_OF_ASC_NODE": 260.5817, "ARG_OF_PERICENTER": 46.2502, "MEAN_ANOMALY": 329.5601, "EPHEMERIS_TYPE": 0, "CLASSIFICATION_TYPE": "U", "NORAD_CAT_ID": 38067, "ELEMENT_SET_NO": 999, "REV_AT_EPOCH": 62662, "BSTAR": 0.00024256948, "MEAN_MOTION_DOT": 1.204e-05, "MEAN_MOTION_DDOT": 0}, "tle": {"line1": "1 38067U 93036BRZ 25354.01294318  .00001204  00000+0  24257-3 0  9991", "line2": "2 38067  74.0171 260.5817 0069695  46.2502 329.5601 14.61151533626627"}}, "geometry": {"type": "Point", "coordinates": [-92.88352714565347, 25.475877914842407]}}, {"type": "Feature", "properties": {"norad_id": 38068, "name": "COSMOS 2251 DEB", "group": "cosmos-2251-debris", "lat": 27.772400240622872, "lon": 104.95313184689249, "alt_km": 781.2577283308201, "timestamp": "2025-12-20T16:47:36.682747+00:00", "meta": {"OBJECT_NAME": "COSMOS 2251 DEB", "OBJECT_ID": "1993-036BSA", "EPOCH": "2025-11-26T00:12:22.263264", "MEAN_MOTION": 14.35960004, "ECCENTRICITY": 0.00240903, "INCLINATION": 74.0219, "RA_OF_ASC_NODE": 338.9788, "ARG_OF_PERICENTER": 72.1007, "MEAN_ANOMALY": 288.2769, "EPHEMERIS_TYPE": 0, "CLASSIFICATION_TYPE": "U", "NORAD_CAT_ID": 38068, "ELEMENT_SET_NO": 999, "REV_AT_EPOCH": 66406, "BSTAR": 0.00028750999, "MEAN_MOTION_DOT": 8.11e-06, "MEAN_MOTION_DDOT": 0}, "tle": {"line1": "1 38068U 93036BSA 25330.00859101  .00000811  00000+0  28751-3 0  9998", "line2": "2 38068  74.0219 338.9788 0024090  72.1007 288.2769 14.35960004664064"}}, "geometry": {"type": "Point", "coordinates": [104.95313184689249, 27.772400240622872]}}, {"type": "Feature", "properties": {"norad_id": 38197, "name": "COSMOS 2251 DEB", "group": "cosmos-2251-debris", "lat": 25.543936426389248, "lon": 153.49707413674437, "alt_km": 606.1605134927331, "timestamp": "2025-12-20T16:47:36.682757+00:00", "meta": {"OBJECT_NAME": "COSMOS 2251 DEB", "OBJECT_ID": "1993-036BSM", "EPOCH": "2025-12-19T05:53:32.639424", "MEAN_MOTION": 14.74334957, "ECCENTRICITY": 0.0125223, "INCLINATION": 73.937, "RA_OF_ASC_NODE": 344.2677, "ARG_OF_PERICENTER": 220.1663, "MEAN_ANOMALY": 139.0206, "EPHEMERIS_TYPE": 0, "CLASSIFICATION_TYPE": "U", "NORAD_CAT_ID": 38197, "ELEMENT_SET_NO": 999, "REV_AT_EPOCH": 85851, "BSTAR": 0.0022874, "MEAN_MOTION_DOT": 0.00017202, "MEAN_MOTION_DDOT": 0}, "tle": {"line1": "1 38197U 93036BSM 25353.24551666  .00017202  00000+0  22874-2 0  9998", "line2": "2 38197  73.9370 344.2677 0125223 220.1663 139.0206 14.74334957858512"}}, "geometry": {"type": "Point", "coordinates": [153.49707413674437, 25.543936426389248]}}, {"type": "Feature", "properties": {"norad_id": 38199, "name": "COSMOS 2251 DEB", "group": "cosmos-2251-debris", "lat": 52.20295511175186, "lon": 70.889516584535, "alt_km": 962.0733570573202, "timestamp": "2025-12-20T16:47:36.682767+00:00", "meta": {"OBJECT_NAME": "COSMOS 2251 DEB", "OBJECT_ID": "1993-036BSP", "EPOCH": "2025-12-18T20:33:26.116992", "MEAN_MOTION": 13.64802181, "ECCENTRICITY": 0.0369926, "INCLINATION": 73.9559, "RA_OF_ASC_NODE": 52.1388, "ARG_OF_PERICENTER": 337.4029, "MEAN_ANOMALY": 21.1146, "EPHEMERIS_TYPE": 0, "CLASSIFICATION_TYPE": "U", "NORAD_CAT_ID": 38199, "ELEMENT_SET_NO": 999, "REV_AT_EPOCH": 61105, "BSTAR": 0.00049100524, "MEAN_MOTION_DOT": 6.08e-06, "MEAN_MOTION_DDOT": 0}, "tle": {"line1": "1 38199U 93036BSP 25352.85655228  .00000608  00000+0  49101-3 0  9990", "line2": "2 38199  73.9559  52.1388 0369926 337.4029  21.1146 13.64802181611052"}}, "geometry": {"type": "Point", "coordinates": [70.889516584535, 52.20295511175186]}}, {"type": "Feature", "properties": {"norad_id": 38208, "name": "COSMOS 2251 DEB", "group": "cosmos-2251-debris", "lat": 23.440987991455234, "lon": 70.25042787575713, "alt_km": 615.971930652383, "timestamp": "2025-12-20T16:47:36.682777+00:00", "meta": {"OBJECT_NAME": "COSMOS 2251 DEB", "OBJECT_ID": "1993-036BSY", "EPOCH": "2025-12-16T00:13:39.722592", "MEAN_MOTION": 14.84023361, "ECCENTRICITY": 0.00017369, "INCLINATION": 74.0064, "RA_OF_ASC_NODE": 72.4172, "ARG_OF_PERICENTER": 150.2716, "MEAN_ANOMALY": 26.1687, "EPHEMERIS_TYPE": 0, "CLASSIFICATION_TYPE": "U", "NORAD_CAT_ID": 38208, "ELEMENT_SET_NO": 999, "REV_AT_EPOCH": 71207, "BSTAR": 0.0016436813, "MEAN_MOTION_DOT": 0.00013687, "MEAN_MOTION_DDOT": 0}, "tle": {"line1": "1 38208U 93036BSY 25350.00948753  .00013687  00000+0  16437-2 0  9990", "line2": "2 38208  74.0064  72.4172 0001736 150.2716  26.1687 14.84023361712075"}}, "geometry": {"type": "Point", "coordinates": [70.25042787575713, 23.440987991455234]}}]}